LEMUR-2-ANDIS           
1 42838U 17042P   26068.55941107  .00023598  00000+0  79875-3 0  9998
2 42838  97.3659 249.7950 0009101   4.3248 355.8070 15.30557934473198
STARLINK-35780          
1 66974U 25288R   26068.24120348  .00021234  00000+0  77910-3 0  9991
2 66974  42.9984  25.5657 0000826 288.0165  72.0596 15.27572509 15228
